CHUANGXIN 1-02 (CX-1-02)
1 33434U 08056B   26178.30216319  .00000116  00000+0  61751-4 0  9996
2 33434  98.6135 204.4681 0015432 108.7915 251.4943 14.30155339920061
STARS (KUKAI)           
1 33498U 09002G   26178.11960586  .00004055  00000+0  36858-3 0  9994
2 33498  98.1542 125.8336 0009541 131.3172 228.8870 14.95810217939962
KKS-1 (KISEKI)          
1 33499U 09002H   26178.24152081  .00001344  00000+0  17160-3 0  9995
2 33499  98.1187 100.8432 0006395 255.9703 104.0799 14.83148150937684
UK-DMC 2                
1 35683U 09041C   26178.32647568  .00000258  00000+0  44531-4 0  9999
2 35683  97.8842 313.0455 0001257  92.6104 267.5249 14.76069286908060
OCEANSAT-2              
1 35931U 09051A   26178.27905934 -.00000233  00000+0 -13334-3 0  9995
2 35931  98.2319 164.1234 0016040 205.8127 154.2241 13.99661205880740
SWISSCUBE               
1 35932U 09051B   26178.22596677  .00000996  00000+0  20612-3 0  9992
2 35932  98.4029  86.2889 0006694 170.0562 190.0773 14.62499621890629
BEESAT-1                
1 35933U 09051C   26177.69301354  .00000752  00000+0  16076-3 0  9998
2 35933  98.3957  85.3622 0004848 183.3217 176.7952 14.61734342890572
ITUPSAT1                
1 35935U 09051E   26177.69222981  .00000700  00000+0  15443-3 0  9998
2 35935  98.4042  84.5432 0006750 199.9772 160.1164 14.60453570890126
DMSP 5D-3 F18 (USA 210) 
1 35951U 09057A   26178.25344470  .00000234  00000+0  14446-3 0  9997
2 35951  98.9041 159.0008 0010210 217.9804 142.0650 14.14902289861018
PROBA-2                 
1 36037U 09059B   26178.21292127  .00000206  00000+0  58536-4 0  9990
2 36037  98.2451   1.4267 0012017 247.6899 112.3024 14.54866514882988
YAOGAN-7                
1 36110U 09069A   26178.24366826  .00000497  00000+0  75809-4 0  9998
2 36110  98.0061  64.0481 0024859  10.2909 349.8805 14.78019451891116
XIWANG-1 (HOPE-1)       
1 36122U 09072B   26178.27576440 -.00000007  00000+0  96934-4 0  9993
2 36122 100.4023 131.9468 0007048 206.7617 153.3133 13.16440218794331
COSMOS 2463             
1 36519U 10017A   26178.25642691  .00000047  00000+0  34566-4 0  9990
2 36519  82.9597 242.3081 0037612 101.8844 318.8031 13.71666206809314
CARTOSAT-2B             
1 36795U 10035A   26178.28712189  .00000416  00000+0  63900-4 0  9993
2 36795  97.9954 228.7726 0012022 151.6087 208.5782 14.78672258861348
TISAT 1                 
1 36799U 10035E   26178.11120913  .00021359  00000+0  69124-3 0  9999
2 36799  98.0704 125.5427 0002787 151.6215 208.5177 15.32075173869226
YAOGAN-10               
1 36834U 10038A   26178.31182058  .00002302  00000+0  27373-3 0  9999
2 36834  97.8978 201.6357 0001777  85.4490 285.7634 14.85381458858711
SHIJIAN-6 04B (SJ-6 04B)
1 37180U 10051B   26178.30060266  .00001932  00000+0  16300-3 0  9990
2 37180  97.8707 183.8160 0006972 278.4188  81.6244 14.99345597857199
FENGYUN 3B              
1 37214U 10059A   26178.28922983  .00000222  00000+0  13803-3 0  9992
2 37214  98.9621 224.3466 0022497 155.5179 337.5335 14.14843579808852
COSMO-SKYMED 4          
1 37216U 10060A   26178.30028900  .00000063  00000+0  14526-4 0  9992
2 37216  97.8889   1.7536 0001485  84.8424 275.2959 14.82152031846060
O/OREOS (USA 219)       
1 37224U 10062C   26178.04056890  .00002307  00000+0  22310-3 0  9995
2 37224  71.9714  58.0196 0012923  42.0426 318.1734 14.93783616118110
RESOURCESAT-2           
1 37387U 11015A   26178.22414327  .00000089  00000+0  60782-4 0  9998
2 37387  98.7641 245.5965 0010550 223.8066 136.2275 14.21602121787603
YOUTHSAT                
1 37388U 11015B   26177.91067662  .00000165  00000+0  86880-4 0  9992
2 37388  98.3687 151.5265 0013610 317.5484  96.7992 14.25633964789021
APRIZESAT 6             
1 37793U 11044F   26178.32084119  .00000817  00000+0  12220-3 0  9996
2 37793  98.2358  89.0271 0044270  54.6012  68.6385 14.76930832798641
JUGNU                   
1 37839U 11058B   26177.91378177  .00000404  00000+0  71065-4 0  9991
2 37839  19.9597 249.3371 0018444 183.2856 332.8974 14.13779071760408
SRMSAT                  
1 37841U 11058D   26178.20632691  .00000372  00000+0  58207-4 0  9998
2 37841  19.9735 358.8265 0011727 314.5587 200.6524 14.11577536759232
