OBJECT_NAME,OBJECT_ID,EPOCH,MEAN_MOTION,ECCENTRICITY,INCLINATION,RA_OF_ASC_NODE,ARG_OF_PERICENTER,MEAN_ANOMALY,EPHEMERIS_TYPE,CLASSIFICATION_TYPE,NORAD_CAT_ID,ELEMENT_SET_NO,REV_AT_EPOCH,BSTAR,MEAN_MOTION_DOT,MEAN_MOTION_DDOT
CHUANGXIN 1-02 (CX-1-02),2008-056B,2026-06-27T07:15:06.899616,14.30155339,.00154322,98.6135,204.4681,108.7915,251.4943,0,U,33434,999,92006,.6175061E-4,.116E-5,0
STARS (KUKAI),2009-002G,2026-06-27T02:52:13.946304,14.95810217,.00095416,98.1542,125.8336,131.3172,228.8870,0,U,33498,999,93996,.36858392E-3,.4055E-4,0
KKS-1 (KISEKI),2009-002H,2026-06-27T05:47:47.397984,14.83148150,.00063951,98.1187,100.8432,255.9703,104.0799,0,U,33499,999,93768,.1716042E-3,.1344E-4,0
UK-DMC 2,2009-041C,2026-06-27T07:50:07.498752,14.76069286,.00012571,97.8842,313.0455,92.6104,267.5249,0,U,35683,999,90806,.4453123E-4,.258E-5,0
OCEANSAT-2,2009-051A,2026-06-27T06:41:50.726976,13.99661205,.00160402,98.2319,164.1234,205.8127,154.2241,0,U,35931,999,88074,-.13333955E-3,-.233E-5,0
SWISSCUBE,2009-051B,2026-06-27T05:25:23.528928,14.62499621,.00066941,98.4029,86.2889,170.0562,190.0773,0,U,35932,999,89062,.2061213E-3,.996E-5,0
BEESAT-1,2009-051C,2026-06-26T16:37:56.369856,14.61734342,.00048484,98.3957,85.3622,183.3217,176.7952,0,U,35933,999,89057,.16075564E-3,.752E-5,0
ITUPSAT1,2009-051E,2026-06-26T16:36:48.655584,14.60453570,.00067507,98.4042,84.5432,199.9772,160.1164,0,U,35935,999,89012,.15443273E-3,.7E-5,0
DMSP 5D-3 F18 (USA 210),2009-057A,2026-06-27T06:04:57.622080,14.14902289,.00102102,98.9041,159.0008,217.9804,142.0650,0,U,35951,999,86101,.14445784E-3,.234E-5,0
PROBA-2,2009-059B,2026-06-27T05:06:36.397728,14.54866514,.00120174,98.2451,1.4267,247.6899,112.3024,0,U,36037,999,88298,.58536285E-4,.206E-5,0
YAOGAN-7,2009-069A,2026-06-27T05:50:52.937664,14.78019451,.00248597,98.0061,64.0481,10.2909,349.8805,0,U,36110,999,89111,.75809131E-4,.497E-5,0
XIWANG-1 (HOPE-1),2009-072B,2026-06-27T06:37:06.044160,13.16440218,.00070487,100.4023,131.9468,206.7617,153.3133,0,U,36122,999,79433,.96934097E-4,-.7E-7,0
COSMOS 2463,2010-017A,2026-06-27T06:09:15.285024,13.71666206,.00376128,82.9597,242.3081,101.8844,318.8031,0,U,36519,999,80931,.34566256E-4,.47E-6,0
CARTOSAT-2B,2010-035A,2026-06-27T06:53:27.331296,14.78672258,.00120221,97.9954,228.7726,151.6087,208.5782,0,U,36795,999,86134,.63900192E-4,.416E-5,0
TISAT 1,2010-035E,2026-06-27T02:40:08.468832,15.32075173,.00027874,98.0704,125.5427,151.6215,208.5177,0,U,36799,999,86922,.69124482E-3,.21359E-3,0
YAOGAN-10,2010-038A,2026-06-27T07:29:01.298112,14.85381458,.00017772,97.8978,201.6357,85.4490,285.7634,0,U,36834,999,85871,.27372559E-3,.2302E-4,0
SHIJIAN-6 04B (SJ-6 04B),2010-051B,2026-06-27T07:12:52.069824,14.99345597,.00069722,97.8707,183.8160,278.4188,81.6244,0,U,37180,999,85719,.16299658E-3,.1932E-4,0
FENGYUN 3B,2010-059A,2026-06-27T06:56:29.457312,14.14843579,.00224971,98.9621,224.3466,155.5179,337.5335,0,U,37214,999,80885,.13803021E-3,.222E-5,0
COSMO-SKYMED 4,2010-060A,2026-06-27T07:12:24.969600,14.82152031,.00014859,97.8889,1.7536,84.8424,275.2959,0,U,37216,999,84606,.14525628E-4,.63E-6,0
O/OREOS (USA 219),2010-062C,2026-06-27T00:58:25.152960,14.93783616,.00129239,71.9714,58.0196,42.0426,318.1734,0,U,37224,999,11811,.22310226E-3,.2307E-4,0
RESOURCESAT-2,2011-015A,2026-06-27T05:22:45.978528,14.21602121,.00105503,98.7641,245.5965,223.8066,136.2275,0,U,37387,999,78760,.60782037E-4,.89E-6,0
YOUTHSAT,2011-015B,2026-06-26T21:51:22.459968,14.25633964,.001361,98.3687,151.5265,317.5484,96.7992,0,U,37388,999,78902,.8688E-4,.165E-5,0
APRIZESAT 6,2011-044F,2026-06-27T07:42:00.678816,14.76930832,.00442702,98.2358,89.0271,54.6012,68.6385,0,U,37793,999,79864,.12219907E-3,.817E-5,0
JUGNU,2011-058B,2026-06-26T21:55:50.744928,14.13779071,.0018444,19.9597,249.3371,183.2856,332.8974,0,U,37839,999,76040,.71065E-4,.404E-5,0
SRMSAT,2011-058D,2026-06-27T04:57:06.645024,14.11577536,.0011727,19.9735,358.8265,314.5587,200.6524,0,U,37841,999,75923,.58206686E-4,.372E-5,0
